SENTINEL-3A             
1 41335U 16011A   20289.63195441  .00000001  00000+0  18506-4 0  9993
2 41335  98.6267 354.6575 0001129 111.0158 249.1143 14.26736851242815
SENTINEL-3A             
1 41335U 16011A   20289.91247392  .00000005  00000+0  20055-4 0  9993
2 41335  98.6266 354.9339 0001133 110.8840 249.2462 14.26736860242854
SENTINEL-3A             
1 41335U 16011A   20290.19299342  .00000005  00000+0  19934-4 0  9991
2 41335  98.6266 355.2104 0001136 110.9461 249.1841 14.26736892242890
SENTINEL-3A             
1 41335U 16011A   20290.47351293  .00000005  00000+0  20197-4 0  9999
2 41335  98.6266 355.4869 0001143 110.9087 249.2216 14.26736902242936
SENTINEL-3A             
1 41335U 16011A   20290.54364281  .00000005  00000+0  20166-4 0  9994
2 41335  98.6266 355.5560 0001143 110.9292 249.2011 14.26736911242947
SENTINEL-3A             
1 41335U 16011A   20290.75403243  .00000003  00000+0  19158-4 0  9996
2 41335  98.6265 355.7634 0001144 110.8184 249.3120 14.26736919242973
SENTINEL-3A             
1 41335U 16011A   20291.10468177  .00000006  00000+0  20462-4 0  9996
2 41335  98.6264 356.1090 0001145 110.9445 249.1858 14.26736959243022
SENTINEL-3A             
1 41335U 16011A   20291.24494151  .00000005  00000+0  20047-4 0  9990
2 41335  98.6264 356.2472 0001148 110.8917 249.2386 14.26736972243047
SENTINEL-3A             
1 41335U 16011A   20291.45533111  .00000003  00000+0  19336-4 0  9990
2 41335  98.6264 356.4546 0001152 110.9136 249.2168 14.26736978243077
SENTINEL-3A             
1 41335U 16011A   20291.80598045  .00000000  00000+0  18201-4 0  9993
2 41335  98.6263 356.8002 0001155 110.7478 249.3826 14.26737006243128
SENTINEL-3A             
1 41335U 16011A   20291.94624018  .00000000  00000+0  18232-4 0  9992
2 41335  98.6263 356.9384 0001157 110.7000 249.4305 14.26737011243146
SENTINEL-3A             
1 41335U 16011A   20292.08649990  .00000000  00000+0  18048-4 0  9999
2 41335  98.6263 357.0767 0001158 110.8904 249.2400 14.26737034243169
SENTINEL-3A             
1 41335U 16011A   20292.43714923  .00000001  00000+0  18646-4 0  9992
2 41335  98.6262 357.4223 0001166 110.8068 249.3237 14.26737070243214
SENTINEL-3A             
1 41335U 16011A   20292.50727909  .00000001  00000+0  18470-4 0  9993
2 41335  98.6262 357.4914 0001166 110.7738 249.3567 14.26737078243229
SENTINEL-3A             
1 41335U 16011A   20292.78779855 -.00000002  00000+0  17244-4 0  9990
2 41335  98.6262 357.7679 0001171 110.5766 249.5540 14.26737097243263
SENTINEL-3A             
1 41335U 16011A   20292.92805828  .00000000  00000+0  17841-4 0  9996
2 41335  98.6261 357.9061 0001174 110.5474 249.5832 14.26737106243285
SENTINEL-3A             
1 41335U 16011A   20293.20857772  .00000004  00000+0  19570-4 0  9998
2 41335  98.6261 358.1826 0001175 110.4860 249.6446 14.26737160243323
SENTINEL-3A             
1 41335U 16011A   20293.41896730  .00000005  00000+0  20007-4 0  9996
2 41335  98.6261 358.3899 0001181 110.4234 249.7074 14.26737174243353
SENTINEL-3A             
1 41335U 16011A   20293.90987631  .00000008  00000+0  21241-4 0  9995
2 41335  98.6259 358.8737 0001188 110.2679 249.8629 14.26737223243424
SENTINEL-3A             
1 41335U 16011A   20294.47091514  .00000011  00000+0  22754-4 0  9998
2 41335  98.6259 359.4267 0001195 110.0740 250.0569 14.26737295243509
SENTINEL-3A             
1 41335U 16011A   20294.54104499  .00000010  00000+0  22100-4 0  9997
2 41335  98.6259 359.4958 0001196 110.1517 249.9792 14.26737305243518
SENTINEL-3A             
1 41335U 16011A   20294.82156441 -.00000001  00000+0  17731-4 0  9997
2 41335  98.6258 359.7723 0001198 110.0122 250.1187 14.26737290243552
SENTINEL-3A             
1 41335U 16011A   20294.89169426 -.00000001  00000+0  17791-4 0  9997
2 41335  98.6258 359.8414 0001199 110.0411 250.0899 14.26737292243564
SENTINEL-3A             
1 41335U 16011A   20295.17221364  .00000000  00000+0  17949-4 0  9992
2 41335  98.6257   0.1178 0001197 110.0336 250.0974 14.26737340243603
SENTINEL-3A             
1 41335U 16011A   20295.24234349 -.00000001  00000+0  17783-4 0  9995
2 41335  98.6257   0.1870 0001198 110.0528 250.0782 14.26737347243611
SENTINEL-3A             
1 41335U 16011A   20295.45273303 -.00000003  00000+0  16898-4 0  9999
2 41335  98.6257   0.3943 0001203 110.0614 250.0696 14.26737357243645
SENTINEL-3A             
1 41335U 16011A   20295.80338226 -.00000009  00000+0  14367-4 0  9999
2 41335  98.6257   0.7399 0001207 109.8640 250.2671 14.26737379243697
SENTINEL-3A             
1 41335U 16011A   20296.15403149 -.00000011  00000+0  13613-4 0  9991
2 41335  98.6256   1.0855 0001209 109.8378 250.2933 14.26737413243743
SENTINEL-3A             
1 41335U 16011A   20296.36442103 -.00000010  00000+0  14073-4 0  9997
2 41335  98.6256   1.2928 0001213 109.8229 250.3082 14.26737431243775
SENTINEL-3A             
1 41335U 16011A   20296.57481057 -.00000009  00000+0  14196-4 0  9995
2 41335  98.6256   1.5002 0001216 109.7908 250.3404 14.26737462243803
SENTINEL-3A             
1 41335U 16011A   20296.71507026 -.00000010  00000+0  13826-4 0  9997
2 41335  98.6255   1.6384 0001218 109.6276 250.5036 14.26737474243823
SENTINEL-3A             
1 41335U 16011A   20296.78520011 -.00000012  00000+0  12896-4 0  9991
2 41335  98.6255   1.7075 0001220 109.5727 250.5585 14.26737464243833
SENTINEL-3A             
1 41335U 16011A   20296.85532995 -.00000012  00000+0  13245-4 0  9992
2 41335  98.6255   1.7766 0001221 109.5694 250.5618 14.26737466243844
SENTINEL-3A             
1 41335U 16011A   20297.13584933 -.00000009  00000+0  14438-4 0  9994
2 41335  98.6255   2.0531 0001223 109.4795 250.6518 14.26737506243880
SENTINEL-3A             
1 41335U 16011A   20297.41636871 -.00000006  00000+0  15380-4 0  9998
2 41335  98.6255   2.3295 0001229 109.3990 250.7324 14.26737527243926
SENTINEL-3A             
1 41335U 16011A   20297.55662840 -.00000007  00000+0  15244-4 0  9998
2 41335  98.6255   2.4678 0001231 109.3511 250.7803 14.26737543243946
SENTINEL-3A             
1 41335U 16011A   20297.76701793 -.00000008  00000+0  14800-4 0  9990
2 41335  98.6254   2.6751 0001234 109.1925 250.9389 14.26737552243973
SENTINEL-3A             
1 41335U 16011A   20297.90727761 -.00000009  00000+0  14478-4 0  9991
2 41335  98.6254   2.8133 0001234 109.1952 250.9362 14.26737546243995
SENTINEL-3A             
1 41335U 16011A   20298.18779696 -.00000008  00000+0  14865-4 0  9995
2 41335  98.6254   3.0898 0001233 109.1003 251.0311 14.26737582244034
SENTINEL-3A             
1 41335U 16011A   20298.46831631 -.00000004  00000+0  16317-4 0  9994
2 41335  98.6254   3.3662 0001240 109.0935 251.0379 14.26737613244070
SENTINEL-3A             
1 41335U 16011A   20298.74883566 -.00000006  00000+0  15592-4 0  9995
2 41335  98.6253   3.6427 0001239 109.0097 251.1218 14.26737633244118
SENTINEL-3A             
1 41335U 16011A   20298.88909533 -.00000007  00000+0  15351-4 0  9997
2 41335  98.6253   3.7809 0001240 108.9903 251.1412 14.26737627244130
SENTINEL-3A             
1 41335U 16011A   20299.16961466 -.00000005  00000+0  15788-4 0  9994
2 41335  98.6253   4.0573 0001239 108.9393 251.1922 14.26737671244172
SENTINEL-3A             
1 41335U 16011A   20299.45013401 -.00000007  00000+0  15007-4 0  9999
2 41335  98.6253   4.3338 0001245 108.9625 251.1691 14.26737682244219
SENTINEL-3A             
1 41335U 16011A   20299.59039367 -.00000009  00000+0  14306-4 0  9996
2 41335  98.6253   4.4720 0001246 108.9684 251.1631 14.26737698244234
SENTINEL-3A             
1 41335U 16011A   20299.87091302 -.00000012  00000+0  13000-4 0  9998
2 41335  98.6252   4.7484 0001248 108.9169 251.2146 14.26737690244271
SENTINEL-3A             
1 41335U 16011A   20299.87091302 -.00000012  00000+0  12900-4 0  9996
2 41335  98.6252   4.7484 0001247 108.7491 251.3825 14.26737692244273
SENTINEL-3A             
1 41335U 16011A   20300.15143235 -.00000010  00000+0  13702-4 0  9992
2 41335  98.6252   5.0249 0001250 108.7277 251.4039 14.26737734244312
SENTINEL-3A             
1 41335U 16011A   20300.50208152 -.00000006  00000+0  15464-4 0  9993
2 41335  98.6252   5.3704 0001255 108.6052 251.5264 14.26737768244369
SENTINEL-3A             
1 41335U 16011A   20300.57221135 -.00000005  00000+0  16018-4 0  9991
2 41335  98.6252   5.4396 0001256 108.6139 251.5178 14.26737788244371
SENTINEL-3A             
1 41335U 16011A   20300.78260085 -.00000005  00000+0  15944-4 0  9998
2 41335  98.6252   5.6469 0001259 108.3914 251.7404 14.26737797244403
SENTINEL-3A             
1 41335U 16011A   20300.92286051 -.00000005  00000+0  16130-4 0  9993
2 41335  98.6252   5.7851 0001262 108.3855 251.7463 14.26737798244425
SENTINEL-3A             
1 41335U 16011A   20301.41376934 -.00000002  00000+0  17080-4 0  9990
2 41335  98.6251   6.2689 0001267 108.1206 252.0112 14.26737838244499
SENTINEL-3A             
1 41335U 16011A   20301.90467814 -.00000002  00000+0  17105-4 0  9990
2 41335  98.6251   6.7527 0001269 108.1275 252.0043 14.26737857244565
SENTINEL-3A             
1 41335U 16011A   20302.18519743  .00000005  00000+0  19951-4 0  9993
2 41335  98.6251   7.0291 0001267 108.0373 252.0945 14.26737918244607
SENTINEL-3A             
1 41335U 16011A   20302.46571673  .00000005  00000+0  20173-4 0  9992
2 41335  98.6251   7.3056 0001274 107.9422 252.1897 14.26737933244648
SENTINEL-3A             
1 41335U 16011A   20302.74623604  .00000000  00000+0  18035-4 0  9994
2 41335  98.6250   7.5820 0001274 107.7984 252.3336 14.26737950244682
SENTINEL-3A             
1 41335U 16011A   20303.09688511  .00000003  00000+0  19148-4 0  9990
2 41335  98.6250   7.9276 0001271 107.8760 252.2559 14.26737987244733
SENTINEL-3A             
1 41335U 16011A   20303.37740440  .00000008  00000+0  21455-4 0  9990
2 41335  98.6249   8.2040 0001276 107.6903 252.4417 14.26738028244772
SENTINEL-3A             
1 41335U 16011A   20303.58779386  .00000005  00000+0  19919-4 0  9993
2 41335  98.6249   8.4113 0001279 107.6919 252.4401 14.26738046244802
